STARLINK-2185           
1 47767U 21017AX  26068.64604219  .00015524  00000+0  52136-3 0  9992
2 47767  53.1622 204.7582 0001195  79.3515 280.7621 15.31049903277878
KUIPER-00223            
1 67783U 26030V   26068.72136600  .00030225  00000+0  90645-3 0  9997
2 67783  51.8827 219.2782 0012824  59.0052 301.2192 15.34146210  5092
